SES-9                   
1 41380U 16013A   19209.89304212 -.00000345  00000-0  00000-0 0  9990
2 41380   0.0620 262.0617 0001670 209.3631 264.6230  1.00271916 12236
SES-10                  
1 42432U 17017A   19209.85814775 -.00000272  00000-0  00000-0 0  9999
2 42432   0.0104  41.5359 0002604  90.9387  55.7811  1.00272035  8541
SES-15                  
1 42709U 17026A   19209.68925090  .00000061  00000-0  00000-0 0  9995
2 42709   0.0165 330.7639 0000518 207.4030 246.8683  1.00271953  8921
SES-11 (ECHOSTAR 105)   
1 42967U 17063A   19209.85055823 -.00000088  00000-0  00000-0 0  9999
2 42967   0.0130 110.7592 0001876  60.8393 335.8750  1.00272503  6591
SES-14                  
1 43175U 18012B   19209.86537656 -.00000278  00000-0  00000-0 0  9997
2 43175   0.0156  25.3668 0000812 105.5790  79.3140  1.00271816  5850
O3B FM15                
1 43231U 18024A   19209.66917428 -.00000016  00000-0  00000-0 0  9990
2 43231   0.0466  13.1531 0002615 114.8127 232.0577  5.00115062 25321
O3B FM16                
1 43232U 18024B   19209.72251718 -.00000016  00000-0  00000-0 0  9991
2 43232   0.0471  18.2153 0002602 109.0655 232.7428  5.00115167 25331
O3B FM14                
1 43233U 18024C   19209.76342167 -.00000016  00000-0  00000-0 0  9995
2 43233   0.0467  20.0343 0002589 103.1032 236.8873  5.00116351 25332
O3B FM13                
1 43234U 18024D   19206.77835671 -.00000017  00000-0  00000-0 0  9992
2 43234   0.0455 349.1235 0000641 224.9294 145.9427  5.00116167 25165
SES-12                  
1 43488U 18049A   19210.18660564 -.00000270  00000-0  00000+0 0  9997
2 43488   0.0152  52.6746 0001511 191.6795 224.3659  1.00271508  4215
O3B FM20                
1 44112U 19020A   19210.38937425 -.00000016  00000-0  00000+0 0  9995
2 44112   0.0466   8.8903 0002279 118.6926 232.4375  5.00117248  5820
O3B FM19                
1 44113U 19020B   19209.70114018 -.00000016  00000-0  00000-0 0  9996
2 44113   0.0445   9.9787 0002760 111.9726 238.0754  5.00115329  5808
O3B FM17                
1 44114U 19020C   19209.69675014 -.00000016  00000-0  00000-0 0  9993
2 44114   0.0460  10.1723 0002585 117.6890 232.1620  5.00116741  5806
O3B FM18                
1 44115U 19020D   19209.64319499 -.00000016  00000-0  00000-0 0  9991
2 44115   0.0469   8.8137 0002752 118.8951 232.3161  5.00116355  5809
